[{"OBJECT_NAME":"STARLINK-6353","OBJECT_ID":"2023-088J","EPOCH":"2026-03-09T02:40:57.857664","MEAN_MOTION":15.025351,"ECCENTRICITY":0.00011101,"INCLINATION":43.0016,"RA_OF_ASC_NODE":110.5408,"ARG_OF_PERICENTER":269.8975,"MEAN_ANOMALY":90.174,"EPHEMERIS_TYPE":0,"CLASSIFICATION_TYPE":"U","NORAD_CAT_ID":57056,"ELEMENT_SET_NO":999,"REV_AT_EPOCH":15028,"BSTAR":-1.203375e-5,"MEAN_MOTION_DOT":-3.66e-6,"MEAN_MOTION_DDOT":0},{"OBJECT_NAME":"RAPIDEYE 5","OBJECT_ID":"2008-040B","EPOCH":"2026-03-09T15:17:22.403904","MEAN_MOTION":15.02179038,"ECCENTRICITY":0.0014834,"INCLINATION":97.3944,"RA_OF_ASC_NODE":91.3825,"ARG_OF_PERICENTER":86.9831,"MEAN_ANOMALY":273.3091,"EPHEMERIS_TYPE":0,"CLASSIFICATION_TYPE":"U","NORAD_CAT_ID":33313,"ELEMENT_SET_NO":999,"REV_AT_EPOCH":95055,"BSTAR":0.00014028,"MEAN_MOTION_DOT":1.794e-5,"MEAN_MOTION_DDOT":0}]
